ONEWEB-0020             
1 45133U 20008C   25359.25653310  .00000247  00000+0  67029-3 0  9994
2 45133  87.8802  70.9357 0001638 109.3665 250.7640 13.10377010285563
ONEWEB-0021             
1 45134U 20008D   25359.27148445  .00000776  00000+0  21861-2 0  9995
2 45134  87.8796  70.9612 0001790 101.8329 258.2999 13.10373147285874
ONEWEB-0023             
1 45136U 20008F   25359.12955247  .00000481  00000+0  13402-2 0  9992
2 45136  87.8793  70.9700 0001927 106.2346 253.8993 13.10371152285285
ONEWEB-0024             
1 45137U 20008G   25359.25486965  .00000124  00000+0  31923-3 0  9996
2 45137  87.8821  70.9184 0001712 101.6585 258.4734 13.10376729285469
ONEWEB-0025             
1 45138U 20008H   25359.27231209  .00000703  00000+0  19775-2 0  9991
2 45138  87.8809  70.9165 0002044 103.7604 256.3751 13.10372457285795
ONEWEB-0026             
1 45139U 20008J   25359.20190747  .00000169  00000+0  44226-3 0  9992
2 45139  87.8856  55.7093 0002016 107.0892 253.0457 13.11413906288307
ONEWEB-0028             
1 45140U 20008K   25358.85351135  .00000543  00000+0  14949-2 0  9998
2 45140  87.8837  55.7920 0002401 102.2751 257.8646 13.11414686285772
ONEWEB-0032             
1 45141U 20008L   25359.13535658  .00000185  00000+0  49408-3 0  9996
2 45141  87.8795  70.9722 0001913 105.5333 254.6006 13.10370322285507
